1 29155U 06018A   12254.33932696 -.00000263  00000-0  10000-3 0  2160
2 29155 000.0667 148.4955 0003383 345.1767 263.7137 01.00271650 23106